STARLINK-2268
1 18030C 21024BF  21326.12935310  .00006218  00000-0  41667-3 0  3260
2 18030  53.0522 178.1471 0001965  76.4936 147.6379 15.06387241    14
